#dV2023  2  9 10  0  0.00000000    1682       CTS   FIT  GFZ
## 2248 381600.00000000    30.00000000 59984 0.4166666666667
+    1   L65  0  0  0  0  0  0  0  0  0  0  0  0  0  0  0  0
+          0  0  0  0  0  0  0  0  0  0  0  0  0  0  0  0  0
+          0  0  0  0  0  0  0  0  0  0  0  0  0  0  0  0  0
+          0  0  0  0  0  0  0  0  0  0  0  0  0  0  0  0  0
+          0  0  0  0  0  0  0  0  0  0  0  0  0  0  0  0  0
++         0  0  0  0  0  0  0  0  0  0  0  0  0  0  0  0  0
++         0  0  0  0  0  0  0  0  0  0  0  0  0  0  0  0  0
++         0  0  0  0  0  0  0  0  0  0  0  0  0  0  0  0  0
++         0  0  0  0  0  0  0  0  0  0  0  0  0  0  0  0  0
++         0  0  0  0  0  0  0  0  0  0  0  0  0  0  0  0  0
%c L  cc GPS ccc cccc cccc cccc cccc ccccc ccccc ccccc ccccc
%c cc cc ccc ccc cccc cccc cccc cccc ccccc ccccc ccccc ccccc
%f  0.0000000  0.000000000  0.00000000000  0.000000000000000
%f  0.0000000  0.000000000  0.00000000000  0.000000000000000
%i    0    0    0    0      0      0      0      0         0
%i    0    0    0    0      0      0      0      0         0
/* CCCCCCCCCCCCCCCCCCCCCCCCCCCCCCCCCCCCCCCCCCCCCCCCCCCCCCCCCCCCCCCCCCCCCCCCCCCCC
/* C                             GFZ RSO-ORBIT                                 C
/* C DOI: https://doi.org/10.5880/GFZ_ORBIT/RSO/L65_G_v02                      C
/* C                                                                           C
/* C DORIS        RMS: not applicable                                          C
/* C GNSS-E Code  RMS: not applicable                                          C
/* C GNSS-E Phase RMS: not applicable                                          C
/* C GNSS-G Code  RMS:  49.795 [cm]   Obs.acc.:     14010 Obs.eli.:      1111  C
/* C GNSS-G Phase RMS:   4.391 [mm]   Obs.acc.:     14010 Obs.eli.:      1111  C
/* C SLR          RMS:   2.117 [cm]   Obs.acc.:        18 Obs.eli.:         0  C
/* C                                                                           C
/* CCCCCCCCCCCCCCCCCCCCCCCCCCCCCCCCCCCCCCCCCCCCCCCCCCCCCCCCCCCCCCCCCCCCCCCCCCCCC
*  2023  2  9 13 24  0.00000000
PL65  -2402.221745  -1300.709294  -6310.533632   6362.541172
VL65  61912.163977  31965.011344 -30290.093908 999999.999999
*  2023  2  9 13 24 30.00000000
PL65  -2214.995732  -1204.529196  -6397.912722   6363.010336
VL65  62893.894537  32148.471285 -27957.414450 999999.999999
*  2023  2  9 13 25  0.00000000
PL65  -2024.926664  -1107.857894  -6478.248090   6363.479934
VL65  63807.341665  32292.505271 -25594.707621 999999.999999
*  2023  2  9 13 25 30.00000000
PL65  -1832.221082  -1010.813419  -6551.453526   6363.949288
VL65  64651.391242  32397.285966 -23204.559471 999999.999999
*  2023  2  9 13 26  0.00000000
PL65  -1637.088756   -913.513214  -6617.450614   6364.418473
VL65  65425.003723  32463.032390 -20789.579176 999999.999999
*  2023  2  9 13 26 30.00000000
PL65  -1439.742465   -816.073997  -6676.168798   6364.887870
VL65  66127.213319  32490.008676 -18352.397061 999999.999999
*  2023  2  9 13 27  0.00000000
PL65  -1240.397773   -718.611625  -6727.545446   6365.357195
VL65  66757.128545  32478.523353 -15895.664784 999999.999999
*  2023  2  9 13 27 30.00000000
PL65  -1039.272804   -621.240967  -6771.525908   6365.826509
VL65  67313.935861  32428.929435 -13422.054109 999999.999999
*  2023  2  9 13 28  0.00000000
PL65   -836.588001   -524.075762  -6808.063578   6366.296129
VL65  67796.902505  32341.623946 -10934.251899 999999.999999
*  2023  2  9 13 28 30.00000000
PL65   -632.565885   -427.228496  -6837.119925   6366.765494
VL65  68205.375773  32217.046353  -8434.955190 999999.999999
*  2023  2  9 13 29  0.00000000
PL65   -427.430817   -330.810277  -6858.664520   6367.235252
VL65  68538.781211  32055.676775  -5926.869323 999999.999999
*  2023  2  9 13 29 30.00000000
PL65   -221.408764   -234.930709  -6872.675066   6367.704557
VL65  68796.622999  31858.034905  -3412.708720 999999.999999
*  2023  2  9 13 30  0.00000000
PL65    -14.727059   -139.697781  -6879.137420   6368.173975
VL65  68978.488039  31624.680873   -895.195512 999999.999999
*  2023  2  9 13 30 30.00000000
PL65    192.385856    -45.217737  -6878.045609   6368.643434
VL65  69084.048009  31356.215366   1622.947891 999999.999999
*  2023  2  9 13 31  0.00000000
PL65    399.700674     48.405036  -6869.401820   6369.112768
VL65  69113.055589  31053.276084   4139.004140 999999.999999
*  2023  2  9 13 31 30.00000000
PL65    606.987467    141.068117  -6853.216386   6369.582331
VL65  69065.343011  30716.535173   6650.258914 999999.999999
*  2023  2  9 13 32  0.00000000
PL65    814.015925    232.671152  -6829.507779   6370.051462
VL65  68940.825676  30346.699840   9154.001632 999999.999999
*  2023  2  9 13 32 30.00000000
PL65   1020.555612    323.115962  -6798.302590   6370.520937
VL65  68739.502750  29944.511510  11647.530448 999999.999999
*  2023  2  9 13 33  0.00000000
PL65   1226.376215    412.306641  -6759.635501   6370.990351
VL65  68461.456074  29510.744500  14128.154113 999999.999999
*  2023  2  9 13 33 30.00000000
PL65   1431.247788    500.149656  -6713.549249   6371.459896
VL65  68106.850777  29046.205846  16593.194623 999999.999999
*  2023  2  9 13 34  0.00000000
PL65   1634.941005    586.553942  -6660.094579   6371.929158
VL65  67675.933984  28551.733783  19039.990425 999999.999999
*  2023  2  9 13 34 30.00000000
PL65   1837.227406    671.430992  -6599.330197   6372.398551
VL65  67169.034783  28028.196210  21465.896194 999999.999999
*  2023  2  9 13 35  0.00000000
PL65   2037.879644    754.694950  -6531.322720   6372.867897
VL65  66586.568181  27476.490926  23868.284811 999999.999999
*  2023  2  9 13 35 30.00000000
PL65   2236.671747    836.262696  -6456.146608   6373.337315
VL65  65929.036109  26897.544686  26244.555071 999999.999999
*  2023  2  9 13 36  0.00000000
PL65   2433.379377    916.053929  -6373.884079   6373.807431
VL65  65197.023096  26292.309919  28592.136531 999999.999999
*  2023  2  9 13 36 30.00000000
PL65   2627.780066    993.991242  -6284.625018   6374.276860
VL65  64391.193496  25661.762623  30908.489438 999999.999999
*  2023  2  9 13 37  0.00000000
PL65   2819.653462   1070.000190  -6188.466881   6374.746029
VL65  63512.291182  25006.901554  33191.104893 999999.999999
*  2023  2  9 13 37 30.00000000
PL65   3008.781562   1144.009358  -6085.514605   6375.215720
VL65  62561.140407  24328.747401  35437.505700 999999.999999
*  2023  2  9 13 38  0.00000000
PL65   3194.948960   1215.950423  -5975.880506   6375.684667
VL65  61538.647257  23628.341981  37645.249154 999999.999999
*  2023  2  9 13 38 30.00000000
PL65   3377.943089   1285.758219  -5859.684172   6376.153784
VL65  60445.799698  22906.746834  39811.931253 999999.999999
*  2023  2  9 13 39  0.00000000
PL65   3557.554469   1353.370793  -5737.052342   6376.623469
VL65  59283.665615  22165.041206  41935.190393 999999.999999
*  2023  2  9 13 39 30.00000000
PL65   3733.576939   1418.729451  -5608.118773   6377.092929
VL65  58053.390460  21404.320342  44012.708457 999999.999999
*  2023  2  9 13 40  0.00000000
PL65   3905.807891   1481.778810  -5473.024109   6377.562279
VL65  56756.197486  20625.694827  46042.210937 999999.999999
*  2023  2  9 13 40 30.00000000
PL65   4074.048506   1542.466840  -5331.915752   6378.031707
VL65  55393.389647  19830.290289  48021.470100 999999.999999
*  2023  2  9 13 41  0.00000000
PL65   4238.103993   1600.744911  -5184.947709   6378.501051
VL65  53966.348698  19019.245905  49948.310856 999999.999999
*  2023  2  9 13 41 30.00000000
PL65   4397.783820   1656.567826  -5032.280426   6378.970492
VL65  52476.531272  18193.711759  51820.614191 999999.999999
*  2023  2  9 13 42  0.00000000
PL65   4552.901931   1709.893851  -4874.080625   6379.439787
VL65  50925.466285  17354.847011  53636.317326 999999.999999
*  2023  2  9 13 42 30.00000000
PL65   4703.276968   1760.684744  -4710.521130   6379.909239
VL65  49314.754805  16503.818967  55393.414498 999999.999999
*  2023  2  9 13 43  0.00000000
PL65   4848.732484   1808.905776  -4541.780692   6380.378469
VL65  47646.069957  15641.801813  57089.959818 999999.999999
*  2023  2  9 13 43 30.00000000
PL65   4989.097156   1854.525745  -4368.043808   6380.848174
VL65  45921.155426  14769.975011  58724.070762 999999.999999
*  2023  2  9 13 44  0.00000000
PL65   5124.204996   1897.516999  -4189.500521   6381.317292
VL65  44141.822908  13889.521731  60293.931035 999999.999999
*  2023  2  9 13 44 30.00000000
PL65   5253.895550   1937.855435  -4006.346223   6381.786874
VL65  42309.949221  13001.627197  61797.791960 999999.999999
*  2023  2  9 13 45  0.00000000
PL65   5378.014089   1975.520507  -3818.781452   6382.255921
VL65  40427.474721  12107.477306  63233.972661 999999.999999
*  2023  2  9 13 45 30.00000000
PL65   5496.411800   2010.495228  -3627.011682   6382.725694
VL65  38496.403250  11208.257345  64600.861215 999999.999999
*  2023  2  9 13 46  0.00000000
PL65   5608.945977   2042.766164  -3431.247119   6383.194707
VL65  36518.802038  10305.150462  65896.917871 999999.999999
*  2023  2  9 13 46 30.00000000
PL65   5715.480208   2072.323424  -3231.702472   6383.664459
VL65  34496.799379   9399.336297  67120.679469 999999.999999
*  2023  2  9 13 47  0.00000000
PL65   5815.884555   2099.160650  -3028.596724   6384.133660
VL65  32432.580438   8491.989596  68270.762088 999999.999999
*  2023  2  9 13 47 30.00000000
PL65   5910.035712   2123.274998  -2822.152885   6384.602980
VL65  30328.384145   7584.278757  69345.861939 999999.999999
*  2023  2  9 13 48  0.00000000
PL65   5997.817171   2144.667119  -2612.597760   6385.072413
VL65  28186.500975   6677.364353  70344.756426 999999.999999
*  2023  2  9 13 48 30.00000000
PL65   6079.119370   2163.341132  -2400.161695   6385.541199
VL65  26009.271118   5772.397754  71266.305384 999999.999999
*  2023  2  9 13 49  0.00000000
PL65   6153.839838   2179.304594  -2185.078331   6386.011101
VL65  23799.082545   4870.519411  72109.453579 999999.999999
EOF
